OBJECT_NAME,OBJECT_ID,EPOCH,MEAN_MOTION,ECCENTRICITY,INCLINATION,RA_OF_ASC_NODE,ARG_OF_PERICENTER,MEAN_ANOMALY,EPHEMERIS_TYPE,CLASSIFICATION_TYPE,NORAD_CAT_ID,ELEMENT_SET_NO,REV_AT_EPOCH,BSTAR,MEAN_MOTION_DOT,MEAN_MOTION_DDOT
INTELSAT 902 (IS-902),2001-039A,2026-07-07T11:47:39.336864,1.00272462,.00044153,6.1673,71.5349,31.4521,309.2722,0,U,26900,999,9089,0,-.272E-5,0
INTELSAT 904 (IS-904),2002-007A,2026-07-07T19:19:42.780000,1.00272869,.000563,6.9682,68.9346,20.7085,94.5779,0,U,27380,999,5197,0,-.215E-5,0
DIRECTV 5 (TEMPO 1),2002-023A,2026-07-07T16:38:44.288160,1.00271084,.0003131,4.9268,75.0554,34.0074,316.1754,0,U,27426,999,8832,0,-.45E-6,0
INTELSAT 905 (IS-905),2002-027A,2026-07-07T14:24:16.340832,1.00272047,.0003701,6.8014,69.5516,41.3362,253.5448,0,U,27438,999,5156,0,.104E-5,0
GALAXY 3C (G-3C),2002-030A,2026-07-07T13:21:16.357248,1.00271292,.0001672,3.7826,77.7134,35.9642,277.3401,0,U,27445,999,4669,0,-.14E-5,0
INTELSAT 906 (IS-906),2002-041A,2026-07-07T17:28:24.650112,1.00271622,.000401,5.8533,72.6687,15.8344,163.4176,0,U,27513,999,8723,0,.24E-6,0
GALAXY 13 (HORIZONS-1),2003-044A,2026-07-07T16:27:22.877280,1.00274572,.0001751,1.4711,83.6027,23.0577,275.8370,0,U,27954,999,4677,0,.147E-5,0
INTELSAT 10-02,2004-022A,2026-07-07T17:09:48.807936,1.00267511,.000054,0.0454,259.4222,290.6114,352.0949,0,U,28358,999,8076,0,.3E-7,0
DIRECTV 8,2005-019A,2026-07-07T14:53:29.572224,1.00271844,.0003149,0.0190,47.3574,71.9739,270.5791,0,U,28659,999,7727,0,.16E-6,0
GALAXY 28 (G-28),2005-022A,2026-07-07T17:02:19.527072,1.00271522,.0002228,3.3482,78.6868,29.0096,46.4624,0,U,28702,999,5218,0,-.187E-5,0
GALAXY 16 (G-16),2006-023A,2026-07-07T14:59:14.022240,1.00270682,.0002501,0.0308,131.3230,339.9613,300.1080,0,U,29236,999,7317,0,-.111E-5,0
DIRECTV 9S,2006-043A,2026-07-07T14:58:36.580800,1.00271141,.0005149,2.4702,80.6605,29.2037,299.1794,0,U,29494,999,5158,0,-.1E-5,0
GALAXY 17 (G-17),2007-016B,2026-07-07T15:03:13.637952,1.00272146,.000371,3.0200,79.6457,26.8003,319.9301,0,U,31307,999,7000,0,-.193E-5,0
INTELSAT 11 (IS-11),2007-044B,2026-07-07T17:20:17.930400,0.99049533,.0003835,3.6155,78.4234,96.1145,46.6580,0,U,32253,999,6865,0,.36E-6,0
HORIZONS-2,2007-063B,2026-07-07T13:23:30.455232,1.00272137,.0003784,2.6513,80.3804,13.9296,318.2991,0,U,32388,999,6801,0,-.24E-5,0
DIRECTV 11,2008-013A,2026-07-07T14:59:06.533088,1.00270759,.0000158,0.0374,206.3511,255.2106,309.6178,0,U,32729,999,4579,0,-.11E-5,0
GALAXY 18 (G-18),2008-024A,2026-07-07T16:34:59.647296,1.00272871,.0002931,0.0152,327.8069,149.2192,294.3841,0,U,32951,999,4605,0,.4E-6,0
GALAXY 19 (G-19),2008-045A,2026-07-07T14:59:43.972800,1.00271643,.000281,0.0577,253.8618,236.1509,283.5017,0,U,33376,999,6510,0,-.124E-5,0
FM-5,2009-034A,2026-07-07T15:02:51.173952,1.00269517,.0000987,0.0407,267.0345,70.1032,88.0038,0,U,35493,999,4684,0,-.185E-5,0
INTELSAT 14 (IS-14),2009-064A,2026-07-07T16:57:20.005056,1.00270786,.0002271,0.0075,32.1586,84.6759,18.1834,0,U,36097,999,6081,0,-.258E-5,0
INTELSAT 15 (IS-15),2009-067A,2026-07-07T17:34:24.075840,1.00271191,.0002241,0.0183,28.3006,83.4657,162.6809,0,U,36106,999,4143,0,-.17E-5,0
DIRECTV 12,2009-075A,2026-07-07T14:58:06.630240,1.00271960,.0000279,0.0370,181.4659,336.4988,249.4222,0,U,36131,999,4675,0,-.88E-6,0
INTELSAT 16 (IS-16),2010-006A,2026-07-07T13:23:00.502080,1.00269540,.0002465,0.0139,321.7013,168.4323,279.9378,0,U,36397,999,5985,0,-.229E-5,0
XM-5,2010-053A,2026-07-07T16:37:14.432160,1.00270759,.0001769,0.0642,268.3506,309.1384,202.2822,0,U,37185,999,5768,0,-.8E-7,0
INTELSAT 17 (IS-17),2010-065B,2026-07-07T17:28:54.604128,1.00272615,.0002608,0.0093,76.9220,34.9628,142.0230,0,U,37238,999,5345,0,.14E-6,0
INTELSAT 28 (IS-28),2011-016A,2026-07-07T17:01:04.645920,1.00273260,.0003787,1.8560,82.3740,33.1272,33.7045,0,U,37392,999,5349,0,-.211E-5,0
INTELSAT 18 (IS-18),2011-056A,2026-07-07T18:01:28.979904,1.00271569,.0001838,0.0171,343.5025,134.9526,257.6195,0,U,37834,999,5401,0,.68E-6,0
INTELSAT 22 (IS-22),2012-011A,2026-07-07T17:30:39.434976,1.00269474,.0001787,0.0279,57.4446,66.0048,136.9875,0,U,38098,999,739,0,0,0
INTELSAT 19 (IS-19),2012-030A,2026-07-07T17:57:29.364192,1.00271655,.0003154,0.0036,51.5555,68.2768,241.2525,0,U,38356,999,5065,0,-.41E-6,0
INTELSAT 20 (IS-20),2012-043A,2026-07-07T17:29:39.532128,1.00272026,.0001264,0.0113,52.0757,126.0071,78.5118,0,U,38740,999,5095,0,-.9E-7,0
INTELSAT 21 (IS-21),2012-045A,2026-07-07T16:53:27.875040,1.00270058,.000178,0.0173,342.9787,145.3041,352.7506,0,U,38749,999,5073,0,-.27E-5,0
