INTELSAT 902 (IS-902)   
1 26900U 01039A   26188.49142751 -.00000272  00000+0  00000+0 0  9998
2 26900   6.1673  71.5349 0004415  31.4521 309.2722  1.00272462 90896
INTELSAT 904 (IS-904)   
1 27380U 02007A   26188.80535625 -.00000215  00000+0  00000+0 0  9995
2 27380   6.9682  68.9346 0005630  20.7085  94.5779  1.00272869 51973
DIRECTV 5 (TEMPO 1)     
1 27426U 02023A   26188.69356815 -.00000045  00000+0  00000+0 0  9994
2 27426   4.9268  75.0554 0003131  34.0074 316.1754  1.00271084 88325
INTELSAT 905 (IS-905)   
1 27438U 02027A   26188.60018913  .00000104  00000+0  00000+0 0  9991
2 27438   6.8014  69.5516 0003701  41.3362 253.5448  1.00272047 51568
GALAXY 3C (G-3C)        
1 27445U 02030A   26188.55643932 -.00000140  00000+0  00000+0 0  9993
2 27445   3.7826  77.7134 0001672  35.9642 277.3401  1.00271292 46697
INTELSAT 906 (IS-906)   
1 27513U 02041A   26188.72806308  .00000024  00000+0  00000+0 0  9998
2 27513   5.8533  72.6687 0004010  15.8344 163.4176  1.00271622 87239
GALAXY 13 (HORIZONS-1)  
1 27954U 03044A   26188.68568145  .00000147  00000+0  00000+0 0  9996
2 27954   1.4711  83.6027 0001751  23.0577 275.8370  1.00274572 46771
INTELSAT 10-02          
1 28358U 04022A   26188.71514824  .00000003  00000+0  00000+0 0  9992
2 28358   0.0454 259.4222 0000540 290.6114 352.0949  1.00267511 80765
DIRECTV 8               
1 28659U 05019A   26188.62048116  .00000016  00000+0  00000+0 0  9993
2 28659   0.0190  47.3574 0003149  71.9739 270.5791  1.00271844 77276
GALAXY 28 (G-28)        
1 28702U 05022A   26188.70994823 -.00000187  00000+0  00000+0 0  9990
2 28702   3.3482  78.6868 0002228  29.0096  46.4624  1.00271522 52186
GALAXY 16 (G-16)        
1 29236U 06023A   26188.62446785 -.00000111  00000+0  00000+0 0  9992
2 29236   0.0308 131.3230 0002501 339.9613 300.1080  1.00270682 73176
DIRECTV 9S              
1 29494U 06043A   26188.62403450 -.00000100  00000+0  00000+0 0  9990
2 29494   2.4702  80.6605 0005149  29.2037 299.1794  1.00271141 51589
GALAXY 17 (G-17)        
1 31307U 07016B   26188.62724118 -.00000193  00000+0  00000+0 0  9996
2 31307   3.0200  79.6457 0003710  26.8003 319.9301  1.00272146 70005
INTELSAT 11 (IS-11)     
1 32253U 07044B   26188.72242975  .00000036  00000+0  00000+0 0  9990
2 32253   3.6155  78.4234 0003835  96.1145  46.6580  0.99049533 68656
HORIZONS-2              
1 32388U 07063B   26188.55799138 -.00000240  00000+0  00000+0 0  9997
2 32388   2.6513  80.3804 0003784  13.9296 318.2991  1.00272137 68019
DIRECTV 11              
1 32729U 08013A   26188.62438117 -.00000110  00000+0  00000+0 0  9993
2 32729   0.0374 206.3511 0000158 255.2106 309.6178  1.00270759 45792
GALAXY 18 (G-18)        
1 32951U 08024A   26188.69096814  .00000040  00000+0  00000+0 0  9994
2 32951   0.0152 327.8069 0002931 149.2192 294.3841  1.00272871 46052
GALAXY 19 (G-19)        
1 33376U 08045A   26188.62481450 -.00000124  00000+0  00000+0 0  9990
2 33376   0.0577 253.8618 0002810 236.1509 283.5017  1.00271643 65105
FM-5                    
1 35493U 09034A   26188.62698118 -.00000185  00000+0  00000+0 0  9999
2 35493   0.0407 267.0345 0000987  70.1032  88.0038  1.00269517 46841
INTELSAT 14 (IS-14)     
1 36097U 09064A   26188.70648154 -.00000258  00000+0  00000+0 0  9998
2 36097   0.0075  32.1586 0002271  84.6759  18.1834  1.00270786 60816
INTELSAT 15 (IS-15)     
1 36106U 09067A   26188.73222310 -.00000170  00000+0  00000+0 0  9990
2 36106   0.0183  28.3006 0002241  83.4657 162.6809  1.00271191 41437
DIRECTV 12              
1 36131U 09075A   26188.62368785 -.00000088  00000+0  00000+0 0  9990
2 36131   0.0370 181.4659 0000279 336.4988 249.4222  1.00271960 46752
INTELSAT 16 (IS-16)     
1 36397U 10006A   26188.55764470 -.00000229  00000+0  00000+0 0  9990
2 36397   0.0139 321.7013 0002465 168.4323 279.9378  1.00269540 59853
XM-5                    
1 37185U 10053A   26188.69252815 -.00000008  00000+0  00000+0 0  9993
2 37185   0.0642 268.3506 0001769 309.1384 202.2822  1.00270759 57684
INTELSAT 17 (IS-17)     
1 37238U 10065B   26188.72840977  .00000014  00000+0  00000+0 0  9997
2 37238   0.0093  76.9220 0002608  34.9628 142.0230  1.00272615 53454
INTELSAT 28 (IS-28)     
1 37392U 11016A   26188.70908155 -.00000211  00000+0  00000+0 0  9996
2 37392   1.8560  82.3740 0003787  33.1272  33.7045  1.00273260 53497
INTELSAT 18 (IS-18)     
1 37834U 11056A   26188.75102986  .00000068  00000+0  00000+0 0  9993
2 37834   0.0171 343.5025 0001838 134.9526 257.6195  1.00271569 54014
INTELSAT 22 (IS-22)     
1 38098U 12011A   26188.72962309  .00000000  00000+0  00000+0 0  9994
2 38098   0.0279  57.4446 0001787  66.0048 136.9875  1.00269474  7396
INTELSAT 19 (IS-19)     
1 38356U 12030A   26188.74825653 -.00000041  00000+0  00000+0 0  9990
2 38356   0.0036  51.5555 0003154  68.2768 241.2525  1.00271655 50656
INTELSAT 20 (IS-20)     
1 38740U 12043A   26188.72892977 -.00000009  00000+0  00000+0 0  9996
2 38740   0.0113  52.0757 0001264 126.0071  78.5118  1.00272026 50954
INTELSAT 21 (IS-21)     
1 38749U 12045A   26188.70379485 -.00000270  00000+0  00000+0 0  9999
2 38749   0.0173 342.9787 0001780 145.3041 352.7506  1.00270058 50734
